KAITUO 1B               
1 40912U 15049P   17272.78480601  .00004874  00000-0  24258-3 0  9995
2 40912  97.4528 278.9366 0015117 191.7342 274.9199 15.17969082112155
TIANWANG 1C (TW-1C)     
1 40926U 15051B   17272.91038458  .00023693  00000-0  51118-3 0  9992
2 40926  97.2197 311.7054 0012681 141.7008 344.1207 15.44469238113077
TIANWANG 1B (TW-1B)     
1 40927U 15051C   17272.72938041  .00022968  00000-0  51524-3 0  9994
2 40927  97.2290 311.4973 0012265 151.8882 318.4445 15.43323742112984
TIANWANG 1A (TW-1A)     
1 40928U 15051D   17272.81219473  .00010043  00000-0  27963-3 0  9997
2 40928  97.2177 306.7409 0012637 173.2658 273.6340 15.36918071112761
LAPAN-A2 (IO-86)        
1 40931U 15052B   17272.60383947  .00000763  00000-0  17250-4 0  9994
2 40931   5.9972 208.2123 0013866 282.6322  77.1695 14.76544681108424
LQSAT                   
1 40958U 15057A   17272.86138982  .00000128  00000-0  27599-4 0  9995
2 40958  97.9685 346.3089 0019699  92.2421 268.0996 14.72988595106521
CHUBUSAT-2              
1 41338U 16012B   17272.11109815  .00000808  00000-0  56905-4 0  9999
2 41338  31.0028 172.2023 0013824   7.6582 352.4263 14.99816238 88606
CHUBUSAT-3              
1 41339U 16012C   17272.89032534  .00000958  00000-0  68410-4 0  9998
2 41339  31.0098 166.2289 0013394  21.8275 338.2929 15.00017179 88702
OUFTI-1                 
1 41458U 16025C   17272.87457898  .00004856  00000-0  26023-3 0  9990
2 41458  98.1738 316.4244 0172225 299.9432  58.4796 15.03646399 78304
E-ST@R-II               
1 41459U 16025D   17272.57466300  .00003529  00000-0  19212-3 0  9994
2 41459  98.1765 316.0386 0171525 301.4109  57.0474 15.03457796 78253
AAUSAT 4                
1 41460U 16025E   17272.83847794  .00006717  00000-0  35959-3 0  9993
2 41460  98.1695 316.4850 0163948 298.1143  60.3600 15.04521874 78323
NUSAT 1 (LO-87)         
1 41557U 16033B   17272.78206151  .00004132  00000-0  15624-3 0  9995
2 41557  97.4570 352.2860 0014056   5.2349 354.9034 15.27446902 74392
BEESAT-4                
1 41619U 16040W   17272.73429898  .00004528  00000-0  20586-3 0  9994
2 41619  97.4521 334.0744 0013452  66.8546 293.4106 15.21174910 58487
PRATHAM                 
1 41783U 16059A   17272.74518602  .00000154  00000-0  39283-4 0  9995
2 41783  98.1562 332.9782 0033459 190.8182 169.2304 14.62863067 53885
ALSAT 1N                
1 41789U 16059G   17272.85212091  .00000090  00000-0  26227-4 0  9999
2 41789  98.1567 333.7884 0028443 183.2476 176.8485 14.64080140 53921
NAYIF-1 (EO-88)         
1 42017U 17008BX  17272.56122709  .00004569  00000-0  19487-3 0  9997
2 42017  97.4847 333.7789 0005916 201.7003 158.3984 15.23422281 34374
LILACSAT-1              
1 42725U 98067ME  17272.30720312  .00036404  00000-0  47818-3 0  9995
2 42725  51.6384 237.4911 0005941 352.9085   7.1823 15.58132748 19697
MAX VALIER SAT          
1 42778U 17036P   17272.72623118  .00003170  00000-0  14753-3 0  9998
2 42778  97.4413 331.2909 0011201 259.6132 100.3841 15.20620139 14919
